[{"OBJECT_NAME":"STARLINK-2427","OBJECT_ID":"2021-018BC","EPOCH":"2026-03-09T18:11:25.778400","MEAN_MOTION":15.06392882,"ECCENTRICITY":0.00011446,"INCLINATION":53.0562,"RA_OF_ASC_NODE":231.3107,"ARG_OF_PERICENTER":96.8268,"MEAN_ANOMALY":263.2851,"EPHEMERIS_TYPE":0,"CLASSIFICATION_TYPE":"U","NORAD_CAT_ID":47837,"ELEMENT_SET_NO":999,"REV_AT_EPOCH":27689,"BSTAR":4.3799015e-5,"MEAN_MOTION_DOT":3.71e-6,"MEAN_MOTION_DDOT":0},{"OBJECT_NAME":"CZ-4B DEB","OBJECT_ID":"2008-053M","EPOCH":"2026-03-05T07:18:48.921696","MEAN_MOTION":15.08195439,"ECCENTRICITY":0.0017401,"INCLINATION":97.8281,"RA_OF_ASC_NODE":90.6528,"ARG_OF_PERICENTER":258.7901,"MEAN_ANOMALY":101.1371,"EPHEMERIS_TYPE":0,"CLASSIFICATION_TYPE":"U","NORAD_CAT_ID":44593,"ELEMENT_SET_NO":999,"REV_AT_EPOCH":67199,"BSTAR":0.00019653,"MEAN_MOTION_DOT":2.982e-5,"MEAN_MOTION_DDOT":0}]
